{
  "type": "FeatureCollection",
  "features": [
    {
      "type": "Feature",
      "properties": {
        "norad_id": 33791,
        "name": "COSMOS 2251 DEB",
        "group": "cosmos-2251-debris",
        "lat": -73.60391190296636,
        "lon": -64.1136139970591,
        "alt_km": 735.7705869544343,
        "timestamp": "2025-12-10T16:57:12.031426+00:00",
        "meta_object_name": "COSMOS 2251 DEB",
        "meta_object_id": "1993-036AG",
        "meta_epoch": "2025-12-10T12:52:55.841088",
        "meta_mean_motion": 14.43104832,
        "meta_eccentricity": 0.0030547,
        "meta_inclination": 74.1752,
        "meta_ra_of_asc_node": 41.6379,
        "meta_arg_of_pericenter": 239.2689,
        "meta_mean_anomaly": 225.3471,
        "meta_ephemeris_type": 0,
        "meta_classification_type": "U",
        "meta_norad_cat_id": 33791,
        "meta_element_set_no": 999,
        "meta_rev_at_epoch": 88020,
        "meta_bstar": 0.0011227,
        "meta_mean_motion_dot": 3.765e-05,
        "meta_mean_motion_ddot": 0,
        "tle_line1": "1 33791U 93036AG  25344.53675742  .00003765  00000+0  11227-2 0  9996",
        "tle_line2": "2 33791  74.1752  41.6379 0030547 239.2689 225.3471 14.43104832880201"
      },
      "geometry": {
        "type": "Point",
        "coordinates": [
          -64.1136139970591,
          -73.60391190296636
        ]
      }
    },
    {
      "type": "Feature",
      "properties": {
        "norad_id": 33792,
        "name": "COSMOS 2251 DEB",
        "group": "cosmos-2251-debris",
        "lat": -55.336887260605586,
        "lon": -36.09414675018219,
        "alt_km": 1204.2598472788686,
        "timestamp": "2025-12-10T16:57:12.031445+00:00",
        "meta_object_name": "COSMOS 2251 DEB",
        "meta_object_id": "1993-036AH",
        "meta_epoch": "2025-12-10T10:48:32.423328",
        "meta_mean_motion": 13.45817113,
        "meta_eccentricity": 0.0426975,
        "meta_inclination": 73.9009,
        "meta_ra_of_asc_node": 349.0002,
        "meta_arg_of_pericenter": 54.0784,
        "meta_mean_anomaly": 91.7571,
        "meta_ephemeris_type": 0,
        "meta_classification_type": "U",
        "meta_norad_cat_id": 33792,
        "meta_element_set_no": 999,
        "meta_rev_at_epoch": 82411,
        "meta_bstar": 0.0010382,
        "meta_mean_motion_dot": 1.056e-05,
        "meta_mean_motion_ddot": 0,
        "tle_line1": "1 33792U 93036AH  25344.45037527  .00001056  00000+0  10382-2 0  9993",
        "tle_line2": "2 33792  73.9009 349.0002 0426975  54.0784  91.7571 13.45817113824113"
      },
      "geometry": {
        "type": "Point",
        "coordinates": [
          -36.09414675018219,
          -55.336887260605586
        ]
      }
    },
    {
      "type": "Feature",
      "properties": {
        "norad_id": 33793,
        "name": "COSMOS 2251 DEB",
        "group": "cosmos-2251-debris",
        "lat": -71.86558627387173,
        "lon": 34.91991589756825,
        "alt_km": 764.768812978813,
        "timestamp": "2025-12-10T16:57:12.031465+00:00",
        "meta_object_name": "COSMOS 2251 DEB",
        "meta_object_id": "1993-036AJ",
        "meta_epoch": "2025-12-09T21:56:10.112352",
        "meta_mean_motion": 14.27706846,
        "meta_eccentricity": 0.00784218,
        "meta_inclination": 73.9806,
        "meta_ra_of_asc_node": 155.0532,
        "meta_arg_of_pericenter": 305.7116,
        "meta_mean_anomaly": 205.2473,
        "meta_ephemeris_type": 0,
        "meta_classification_type": "U",
        "meta_norad_cat_id": 33793,
        "meta_element_set_no": 999,
        "meta_rev_at_epoch": 87166,
        "meta_bstar": 0.00094289688,
        "meta_mean_motion_dot": 2.377e-05,
        "meta_mean_motion_ddot": 0,
        "tle_line1": "1 33793U 93036AJ  25343.91400593  .00002377  00000+0  94290-3 0  9999",
        "tle_line2": "2 33793  73.9806 155.0532 0078421 305.7116 205.2473 14.27706846871662"
      },
      "geometry": {
        "type": "Point",
        "coordinates": [
          34.91991589756825,
          -71.86558627387173
        ]
      }
    },
    {
      "type": "Feature",
      "properties": {
        "norad_id": 33795,
        "name": "COSMOS 2251 DEB",
        "group": "cosmos-2251-debris",
        "lat": -0.4708744485100287,
        "lon": 80.77149123684794,
        "alt_km": 574.3999320658559,
        "timestamp": "2025-12-10T16:57:12.031485+00:00",
        "meta_object_name": "COSMOS 2251 DEB",
        "meta_object_id": "1993-036AL",
        "meta_epoch": "2025-12-10T09:16:10.682400",
        "meta_mean_motion": 15.05374882,
        "meta_eccentricity": 0.0031828,
        "meta_inclination": 74.0324,
        "meta_ra_of_asc_node": 81.5623,
        "meta_arg_of_pericenter": 165.9252,
        "meta_mean_anomaly": 259.4976,
        "meta_ephemeris_type": 0,
        "meta_classification_type": "U",
        "meta_norad_cat_id": 33795,
        "meta_element_set_no": 999,
        "meta_rev_at_epoch": 89986,
        "meta_bstar": 0.0020976,
        "meta_mean_motion_dot": 0.00030504,
        "meta_mean_motion_ddot": 0,
        "tle_line1": "1 33795U 93036AL  25344.38623475  .00030504  00000+0  20976-2 0  9991",
        "tle_line2": "2 33795  74.0324  81.5623 0031828 165.9252 259.4976 15.05374882899861"
      },
      "geometry": {
        "type": "Point",
        "coordinates": [
          80.77149123684794,
          -0.4708744485100287
        ]
      }
    },
    {
      "type": "Feature",
      "properties": {
        "norad_id": 33797,
        "name": "COSMOS 2251 DEB",
        "group": "cosmos-2251-debris",
        "lat": 11.451057462632694,
        "lon": -144.4976401915566,
        "alt_km": 668.4229593423606,
        "timestamp": "2025-12-10T16:57:12.031498+00:00",
        "meta_object_name": "COSMOS 2251 DEB",
        "meta_object_id": "1993-036AN",
        "meta_epoch": "2025-12-10T09:40:41.701152",
        "meta_mean_motion": 14.5783356,
        "meta_eccentricity": 0.0060792,
        "meta_inclination": 74.0478,
        "meta_ra_of_asc_node": 39.3997,
        "meta_arg_of_pericenter": 128.009,
        "meta_mean_anomaly": 249.2819,
        "meta_ephemeris_type": 0,
        "meta_classification_type": "U",
        "meta_norad_cat_id": 33797,
        "meta_element_set_no": 999,
        "meta_rev_at_epoch": 88951,
        "meta_bstar": 0.00064029,
        "meta_mean_motion_dot": 2.978e-05,
        "meta_mean_motion_ddot": 0,
        "tle_line1": "1 33797U 93036AN  25344.40326043  .00002978  00000+0  64029-3 0  9999",
        "tle_line2": "2 33797  74.0478  39.3997 0060792 128.0090 249.2819 14.57833560889513"
      },
      "geometry": {
        "type": "Point",
        "coordinates": [
          -144.4976401915566,
          11.451057462632694
        ]
      }
    },
    {
      "type": "Feature",
      "properties": {
        "norad_id": 33798,
        "name": "COSMOS 2251 DEB",
        "group": "cosmos-2251-debris",
        "lat": 35.58864862731559,
        "lon": -52.134587125077374,
        "alt_km": 771.8211207090981,
        "timestamp": "2025-12-10T16:57:12.031509+00:00",
        "meta_object_name": "COSMOS 2251 DEB",
        "meta_object_id": "1993-036AP",
        "meta_epoch": "2025-12-10T11:23:32.584416",
        "meta_mean_motion": 14.44609981,
        "meta_eccentricity": 0.0092483,
        "meta_inclination": 74.0278,
        "meta_ra_of_asc_node": 140.1241,
        "meta_arg_of_pericenter": 261.9752,
        "meta_mean_anomaly": 117.0911,
        "meta_ephemeris_type": 0,
        "meta_classification_type": "U",
        "meta_norad_cat_id": 33798,
        "meta_element_set_no": 999,
        "meta_rev_at_epoch": 88561,
        "meta_bstar": 0.00027044,
        "meta_mean_motion_dot": 9.57e-06,
        "meta_mean_motion_ddot": 0,
        "tle_line1": "1 33798U 93036AP  25344.47468269  .00000957  00000+0  27044-3 0  9995",
        "tle_line2": "2 33798  74.0278 140.1241 0092483 261.9752 117.0911 14.44609981885615"
      },
      "geometry": {
        "type": "Point",
        "coordinates": [
          -52.134587125077374,
          35.58864862731559
        ]
      }
    },
    {
      "type": "Feature",
      "properties": {
        "norad_id": 33799,
        "name": "COSMOS 2251 DEB",
        "group": "cosmos-2251-debris",
        "lat": 45.95977864330679,
        "lon": -111.43196555491403,
        "alt_km": 611.5423681083539,
        "timestamp": "2025-12-10T16:57:12.031520+00:00",
        "meta_object_name": "COSMOS 2251 DEB",
        "meta_object_id": "1993-036AQ",
        "meta_epoch": "2025-12-10T10:13:24.684960",
        "meta_mean_motion": 14.79522867,
        "meta_eccentricity": 0.0023619,
        "meta_inclination": 74.032,
        "meta_ra_of_asc_node": 86.3428,
        "meta_arg_of_pericenter": 157.8211,
        "meta_mean_anomaly": 280.9118,
        "meta_ephemeris_type": 0,
        "meta_classification_type": "U",
        "meta_norad_cat_id": 33799,
        "meta_element_set_no": 999,
        "meta_rev_at_epoch": 88777,
        "meta_bstar": 0.0017798,
        "meta_mean_motion_dot": 0.00013369,
        "meta_mean_motion_ddot": 0,
        "tle_line1": "1 33799U 93036AQ  25344.42598015  .00013369  00000+0  17798-2 0  9999",
        "tle_line2": "2 33799  74.0320  86.3428 0023619 157.8211 280.9118 14.79522867887773"
      },
      "geometry": {
        "type": "Point",
        "coordinates": [
          -111.43196555491403,
          45.95977864330679
        ]
      }
    }
  ]
}